MOLNIYA 2-9 [?]         
1 07276U 74026A   23246.89717557  .00000144  00000+0  00000+0 0  9994
2 07276  64.2771 167.2053 6378346 275.0911  20.0650  2.45097666260081
MOLNIYA 2-10 [?]        
1 07376U 74056A   23249.38477347 -.00001371  00000+0  00000+0 0  9999
2 07376  64.8144  47.6015 6819260 282.5878  14.1878  2.01145608359358
MOLNIYA 1-S [?]         
1 07392U 74060A   23250.72385729 -.00000077  00000+0  00000+0 0  9996
2 07392   3.9846 275.8021 0011431 226.7651 175.6273  1.00344659124018
MOLNIYA 1-29 [?]        
1 07780U 75036A   23248.83800956  .00000219  00000+0 -20521+0 0  9992
2 07780  63.4282 168.2108 6727656 286.1335  13.7310  2.00613189354559
MOLNIYA 2-14 [?]        
1 08195U 75081A   23250.02565809  .00000244  00000+0  00000+0 0  9999
2 08195  63.4388 141.5661 6691763 290.6011  12.7325  2.02056314351965
MOLNIYA 1-32 [?]        
1 08601U 76006A   23250.96470759 -.00000637  00000+0  00000+0 0  9998
2 08601  63.5905 239.8906 7006770 283.5369  12.6051  1.99967694347958
MOLNIYA 1-36 [?]        
1 09880U 77021A   23249.56105606  .00001323  00000+0  00000+0 0  9998
2 09880  63.5110 214.0435 6915180 288.8526  11.7707  2.00498634238317
MOLNIYA 3-8 [?]         
1 10455U 77105A   23250.22660716  .00001189  00000+0  88377-2 0  9990
2 10455  63.6263 292.4344 7230258 282.7456  11.5170  2.00751872336102
MOLNIYA 1-40 [?]        
1 10925U 78055A   23250.35063621  .00000716  00000+0  00000+0 0  9992
2 10925  63.7968 344.6190 7244375 280.4191  12.0992  2.00624475331642
MOLNIYA 3-10 [?]        
1 11057U 78095A   23250.80090419  .00000304  00000+0  21200-2 0  9999
2 11057  63.2691 236.3827 5738343 313.6246  11.1407  4.09892893402060
MOLNIYA 3-13 [?]        
1 11896U 80063A   23248.59098006  .00000321  00000+0  00000+0 0  9992
2 11896  62.9919  77.4587 7250186 277.4271  12.7395  2.00634295316020
MOLNIYA 1-49 [?]        
1 12156U 81009A   23247.95751647  .00001544  00000+0  95595-3 0  9994
2 12156  61.7345  92.8363 7455485 270.4986  13.2301  2.05863706230639
MOLNIYA 1-52 [?]        
1 13012U 81123A   23249.85736523 -.00001193  00000+0 -11786-1 0  9990
2 13012  61.5315 215.7637 7150796 260.8078  19.2806  2.00622582305536
MOLNIYA 1-53 [?]        
1 13070U 82015A   23248.90314349  .00001375  00000+0  12104-1 0  9993
2 13070  62.6444 161.4344 6921106 283.2999  13.3106  2.00733030304198
MOLNIYA 3-20 [?]        
1 13875U 83015A   23249.62628833 -.00000104  00000+0 -24364-2 0  9996
2 13875  62.1512 282.6628 7312951 262.9347  16.9009  2.00397216232662
MOLNIYA 1-56 [?]        
1 13890U 83019A   23250.25659892  .00001506  00000+0  23285-2 0  9993
2 13890  62.6853 306.1942 7394082 268.3344  14.3806  1.99948072295547
MOLNIYA 1-62 [?]        
1 15214U 84089A   23242.38592140  .00255044  33208-6  11497-1 0  9992
2 15214  61.5295 299.9502 7209231  51.1148 353.5385  2.40855232   411
MOLNIYA 1-63 [?]        
1 15429U 84124A   23250.19533963  .00000765  00000+0  00000+0 0  9997
2 15429  63.5853 122.4893 6865184 256.9592 348.3531  2.00363576283718
MOLNIYA 3-24 [?]        
1 15738U 85040A   23249.89935663  .00000014  00000+0  59110-3 0  9993
2 15738  63.3126 356.4273 6912518 247.6852  29.2368  2.55635302315283
MOLNIYA 3-27 [?]        
1 16393U 85117A   23250.50187411 -.00000038  00000+0  00000+0 0  9993
2 16393  64.0042  19.9709 7130718 245.9437  27.7676  2.12398236283673
MOLNIYA 1-69 [?]        
1 17078U 86089A   23250.07874273 -.00000958  00000+0  00000+0 0  9995
2 17078  63.9690 142.3315 6840819 254.2032  25.8576  2.00780719269791
MOLNIYA 3-31 [?]        
1 17328U 87008A   23250.06636135  .00000234  00000+0  00000+0 0  9993
2 17328  63.5079  71.0015 7273600 252.9316  21.8755  2.00581561264828
MOLNIYA 1-71 [?]        
1 18946U 88017A   23250.01087239 -.00000318  00000+0 -98410-4 0  9993
2 18946  63.2621  60.9092 7372103 256.7341  19.0150  2.00672923260013
MOLNIYA 1-75 [?]        
1 19807U 89014A   23249.06552452  .00000884  00000+0  00000+0 0  9994
2 19807  63.7979 237.8333 6686268 264.2005  22.0993  2.00227774252935
MOLNIYA 1-80 [?]        
1 21118U 91012A   23250.42458540  .00000643  00000+0  00000+0 0  9991
2 21118  65.1225 285.9494 6632526 271.6995  19.3556  2.05233058240155
MOLNIYA 3-40 [?]        
1 21196U 91022A   23250.11742387 -.00000717  00000+0  00000+0 0  9992
2 21196  64.9639 279.8666 6658111 268.7347  20.3515  2.03025723238729
MOLNIYA 1-81 [?]        
1 21426U 91043A   23246.17334342  .00000122  00000+0  00000+0 0  9999
2 21426  63.7854 289.0733 6985337 264.6825  19.1584  2.00619372236049
MOLNIYA 3-41 [?]        
1 21706U 91065A   23249.68843965 -.00000787  00000+0  00000+0 0  9997
2 21706  64.0133 114.0534 7083468 252.2709  24.2928  2.04362081235986
MOLNIYA 3-42 [?]        
1 22178U 92067A   23249.27614536  .00000128  00000+0  00000+0 0  9997
2 22178  64.6753 169.2253 6469047 259.6304  26.6910  2.20434879 89882
MOLNIYA 1-86 [?]        
1 22671U 93035A   23250.74436780  .00000062  00000+0  22878-3 0  9996
2 22671  63.1143 336.8352 4848903  13.9844 355.7473  5.62970241377471
MOLNIYA 1-87 [?]        
1 22949U 93079A   23238.81543791 -.00000416  00000+0  00000+0 0  9990
2 22949  64.5612  41.3275 6960533 281.1401  13.6625  2.02848646 83760
MOLNIYA 1-88 [?]        
1 23420U 94081A   23249.83692640 -.00000006  00000+0  00000+0 0  9996
2 23420  64.3278  97.0347 5842945 274.8065  24.6757  3.34494411128636
MOLNIYA 3-47 [?]        
1 23642U 95042A   23250.40679234 -.00000707  00000+0  00000+0 0  9997
2 23642  64.7180  21.3942 6976940 281.1843  13.5991  2.01983244206047
MOLNIYA 1-90 [?]        
1 24960U 97054A   23250.55060819 -.00000009  00000+0  43646-2 0  9996
2 24960  63.9649  61.8713 6103528 294.9945  14.8508  3.18686527222258
MOLNIYA 1-91 [?]        
1 25485U 98054A   23250.44851735 -.00000013  00000+0  00000+0 0  9992
2 25485  63.4601  80.4232 6799423 291.5926  11.8099  2.36441393189606
MOLNIYA 3-50 [?]        
1 25847U 99036A   23251.11412628  .00000351  00000+0 -34801-2 0  9998
2 25847  63.3964 269.2948 7190232 282.8682  11.6746  2.00618847177094
